GOES 1 (SMS-C) [-]      
1 08366U 75100A   17308.51980179 -.00000194  00000-0  00000+0 0  9999
2 08366  11.8203 316.8341 0006710 286.4872 258.1078  1.00237810153650
GOES 2 [-]              
1 10061U 77048A   17309.39341601 -.00000275  00000-0  00000+0 0  9995
2 10061  13.0821 325.9700 0017843 318.5611 231.0620  0.99400585 92240
GOES 3 [-]              
1 10953U 78062A   17309.05628435  .00000085  00000-0  00000+0 0  9996
2 10953  13.2418 329.5907 0004967 292.0838 215.6042  0.99357687 97338
GOES 4 [-]              
1 11964U 80074A   17309.37787663 -.00000065  00000-0  00000+0 0  9998
2 11964  14.0298 333.3192 0032175  12.2544  29.0767  0.99232127 96413
GOES 5 [-]              
1 12472U 81049A   17309.35311971 -.00000240  00000-0  00000+0 0  9994
2 12472  14.2520 343.5514 0006398 259.5846 207.2970  1.00220769 91411
GOES 6 [-]              
1 14050U 83041A   17309.09493919 -.00000226  00000-0  00000+0 0  9990
2 14050  14.4992 348.4400 0003852 242.7865 122.6830  1.00233091184516
GOES 7 [-]              
1 17561U 87022A   17307.24291500 -.00000146  00000-0  00000+0 0  9991
2 17561  15.1439   4.3579 0006246 289.5120 188.6961  0.99908304 95531
GOES 8 [-]              
1 23051U 94022A   17308.92271507 -.00000095  00000-0  00000+0 0  9994
2 23051  11.5613  37.5775 0009452 234.2336 124.0082  0.98906324 93007
GOES 9 [-]              
1 23581U 95025A   17309.39493792 -.00000086  00000-0  00000+0 0  9990
2 23581  11.0594  37.0751 0003291 176.1591 173.1230  0.98801306 81673
GOES 10 [-]             
1 24786U 97019A   17308.79591862  .00000059  00000-0  00000+0 0  9992
2 24786   9.4554  41.9084 0030916 170.1259 189.8604  0.99120058 74872
GOES 11 [-]             
1 26352U 00022A   17308.95327196  .00000077  00000-0  00000+0 0  9996
2 26352   5.2366  72.6334 0007115 167.8990 213.5696  0.99039676 63832
GOES 12 [-]             
1 26871U 01031A   17308.68900576 -.00000253  00000-0  00000+0 0  9999
2 26871   6.5821  58.9713 0010975 226.3761 131.4264  0.99138593 59541
GOES 13 [+]             
1 29155U 06018A   17309.08349798 -.00000252  00000-0  00000+0 0  9994
2 29155   0.1451 104.8989 0000979   5.4415 249.7092  1.00268033 41975
GOES 14 [S]             
1 35491U 09033A   17309.16570938 -.00000095  00000-0  00000+0 0  9990
2 35491   0.2480 275.1421 0010831 313.0127 131.7917  1.00271796 30612
GOES 15 [+]             
1 36411U 10008A   17309.24979798  .00000083  00000-0  00000+0 0  9999
2 36411   0.2264 273.4079 0004739 291.2138 155.3946  1.00284276 28140
GOES 16 [S]             
1 41866U 16071A   17309.12426523 -.00000186  00000-0  00000+0 0  9990
2 41866   0.0025  11.4381 0001522 260.3087  88.2748  1.00271524  3561
